NORAD_CAT_ID,OBJECT_NAME,OBJECT_TYPE,EPOCH,MEAN_MOTION,ECCENTRICITY,INCLINATION,RA_OF_ASC_NODE,ARG_OF_PERICENTER,MEAN_ANOMALY,BSTAR,MEAN_MOTION_DOT,MEAN_MOTION_DDOT,TLE_LINE0,TLE_LINE1,TLE_LINE2,SEMIMAJOR_AXIS,PERIOD,APOGEE,PERIGEE,DECAYED
49152.0,STARLINK-3081,PAYLOAD,2023-07-28 00:22:03,14.98318896,0.0002525,70.0019,144.0384,266.6981,93.3889,-0.00011061,-1.412e-05,0.0,0 STARLINK-3081,1 49152U 21082Y   23209.01532354 -.00001412  00000-0 -11061-3 0  9995,2 49152  70.0019 144.0384 0002525 266.6981  93.3889 14.98318896104941,6950.227,96.108,573.847,570.337,0.0
49152.0,STARLINK-3081,PAYLOAD,2023-07-28 13:11:07,14.98330484,0.0003146,70.0005,142.6916,270.8345,89.2454,-7.6702e-05,-1.008e-05,0.0,0 STARLINK-3081,1 49152U 21082Y   23209.54939635 -.00001008  00000-0 -76702-4 0  9991,2 49152  70.0005 142.6916 0003146 270.8345  89.2454 14.98330484105010,6950.191,96.107,574.243,569.87,0.0
49152.0,STARLINK-3081,PAYLOAD,2023-07-28 19:35:39,14.98331817,0.0003449,69.9998,142.018,270.231,89.8454,-4.3406e-05,-6.11e-06,0.0,0 STARLINK-3081,1 49152U 21082Y   23209.81643468 -.00000611  00000-0 -43406-4 0  9991,2 49152  69.9998 142.0180 0003449 270.2310  89.8454 14.98331817105069,6950.187,96.107,574.449,569.655,0.0
49152.0,STARLINK-3081,PAYLOAD,2023-07-29 02:00:11,14.98338939,0.000319,70.0001,141.3439,268.3254,91.754,4.7499e-05,4.74e-06,0.0,0 STARLINK-3081,1 49152U 21082Y   23210.08346758  .00000474  00000-0  47499-4 0  9995,2 49152  70.0001 141.3439 0003190 268.3254  91.7540 14.98338939105109,6950.165,96.106,574.247,569.813,0.0
49152.0,STARLINK-3081,PAYLOAD,2023-07-29 19:37:40,14.98325266,0.000282,70.0012,139.493,273.5703,86.5134,0.00018391,2.102e-05,0.0,0 STARLINK-3081,1 49152U 21082Y   23210.81783289  .00002102  00000-0  18391-3 0  9998,2 49152  70.0012 139.4930 0002820 273.5703  86.5134 14.98325266105213,6950.208,96.107,574.032,570.113,0.0
49152.0,STARLINK-3081,PAYLOAD,2023-07-30 06:50:36,14.98333773,0.0003104,70.0004,138.3145,269.7833,90.2971,0.00025858,2.994e-05,0.0,0 STARLINK-3081,1 49152U 21082Y   23211.28514657  .00002994  00000-0  25858-3 0  9996,2 49152  70.0004 138.3145 0003104 269.7833  90.2971 14.98333773105287,6950.181,96.107,574.204,569.889,0.0
49152.0,STARLINK-3081,PAYLOAD,2023-07-31 18:05:34,14.98329285,0.0002687,70.0011,134.6124,268.1074,91.9778,1.9659e-05,1.42e-06,0.0,0 STARLINK-3081,1 49152U 21082Y   23212.75387393  .00000142  00000-0  19659-4 0  9990,2 49152  70.0011 134.6124 0002687 268.1074  91.9778 14.98329285105507,6950.195,96.107,573.928,570.193,0.0
49152.0,STARLINK-3081,PAYLOAD,2023-08-01 18:07:35,14.98327374,0.0002662,70.0007,132.0877,266.3332,93.7523,4.6828e-05,4.66e-06,0.0,0 STARLINK-3081,1 49152U 21082Y   23213.75527470  .00000466  00000-0  46828-4 0  9990,2 49152  70.0007 132.0877 0002662 266.3332  93.7523 14.98327374105650,6950.201,96.107,573.916,570.216,0.0
49152.0,STARLINK-3081,PAYLOAD,2023-08-03 02:10:16,14.98335541,0.0002806,70.0004,128.7201,266.7441,93.3397,0.00015017,1.7e-05,0.0,0 STARLINK-3081,1 49152U 21082Y   23215.09046689  .00001700  00000-0  15017-3 0  9994,2 49152  70.0004 128.7201 0002806 266.7441  93.3397 14.98335541105857,6950.176,96.107,573.991,570.091,0.0
49152.0,STARLINK-3081,PAYLOAD,2023-08-03 13:23:13,14.98329638,0.0002847,70.0011,127.5437,264.5336,95.5499,6.2894e-05,6.58e-06,0.0,0 STARLINK-3081,1 49152U 21082Y   23215.55779222  .00000658  00000-0  62894-4 0  9998,2 49152  70.0011 127.5437 0002847 264.5336  95.5499 14.98329638105922,6950.194,96.107,574.038,570.08,0.0
49152.0,STARLINK-3081,PAYLOAD,2023-08-04 02:12:18,14.98323459,0.0002989,70.0001,126.1957,272.0795,88.0021,-2.8195e-05,-4.29e-06,0.0,0 STARLINK-3081,1 49152U 21082Y   23216.09188014 -.00000429  00000-0 -28195-4 0  9995,2 49152  70.0001 126.1957 0002989 272.0795  88.0021 14.98323459106006,6950.213,96.107,574.156,570.001,0.0
49152.0,STARLINK-3081,PAYLOAD,2023-08-05 02:14:18,14.98342238,0.0003046,70.0002,123.6713,270.4156,89.6654,7.9602e-05,8.57e-06,0.0,0 STARLINK-3081,1 49152U 21082Y   23217.09326600  .00000857  00000-0  79602-4 0  9993,2 49152  70.0002 123.6713 0003046 270.4156  89.6654 14.98342238106158,6950.155,96.106,574.137,569.903,0.0
49152.0,STARLINK-3081,PAYLOAD,2023-08-05 18:15:38,14.98333749,0.0002924,70.0006,121.9882,272.4219,87.6605,0.00028651,3.328e-05,0.0,0 STARLINK-3081,1 49152U 21082Y   23217.76086559  .00003328  00000-0  28651-3 0  9996,2 49152  70.0006 121.9882 0002924 272.4219  87.6605 14.98333749106258,6950.181,96.107,574.079,570.014,0.0
49152.0,STARLINK-3081,PAYLOAD,2023-08-06 18:17:40,14.98324949,0.0002508,70.0021,119.4666,252.9198,107.1686,-0.00017623,-2.195e-05,0.0,0 STARLINK-3081,1 49152U 21082Y   23218.76227427 -.00002195  00000-0 -17623-3 0  9998,2 49152  70.0021 119.4666 0002508 252.9198 107.1686 14.98324949106400,6950.209,96.107,573.817,570.33,0.0
49152.0,STARLINK-3081,PAYLOAD,2023-08-07 00:42:13,14.98315264,0.0002901,70.0026,118.7946,246.6858,113.3996,-0.00031794,-3.883e-05,0.0,0 STARLINK-3081,1 49152U 21082Y   23219.02932008 -.00003883  00000-0 -31794-3 0  9996,2 49152  70.0026 118.7946 0002901 246.6858 113.3996 14.98315264106445,6950.238,96.108,574.12,570.087,0.0
49152.0,STARLINK-3081,PAYLOAD,2023-08-07 18:19:41,14.98332074,0.0003195,70.0001,116.9392,264.8923,95.1871,-2.0094e-05,-3.33e-06,0.0,0 STARLINK-3081,1 49152U 21082Y   23219.76367813 -.00000333  00000-0 -20094-4 0  9992,2 49152  70.0001 116.9392 0003195 264.8923  95.1871 14.98332074106553,6950.186,96.107,574.272,569.831,0.0
49152.0,STARLINK-3081,PAYLOAD,2023-08-08 23:10:06,14.98351517,0.0003285,70.0012,113.9088,269.8577,90.2206,0.0009105,0.00010794,0.0,0 STARLINK-3081,1 49152U 21082Y   23220.96535425  .00010794  00000-0  91050-3 0  9991,2 49152  70.0012 113.9088 0003285 269.8577  90.2206 14.98351517106735,6950.126,96.106,574.274,569.708,0.0
49152.0,STARLINK-3081,PAYLOAD,2023-08-10 02:24:23,14.98342987,0.0003268,70.0015,111.0472,272.3562,87.7223,0.00023439,2.706e-05,0.0,0 STARLINK-3081,1 49152U 21082Y   23222.10026664  .00002706  00000-0  23439-3 0  9999,2 49152  70.0015 111.0472 0003268 272.3562  87.7223 14.98342987106908,6950.153,96.106,574.289,569.746,0.0
49152.0,STARLINK-3081,PAYLOAD,2023-08-10 10:25:03,14.98334497,0.0002362,70.0027,110.2059,274.3659,85.723,0.00011056,1.227e-05,0.0,0 STARLINK-3081,1 49152U 21082Y   23222.43407178  .00001227  00000-0  11056-3 0  9997,2 49152  70.0027 110.2059 0002362 274.3659  85.7230 14.98334497106954,6950.179,96.107,573.686,570.402,0.0
49152.0,STARLINK-3081,PAYLOAD,2023-08-11 18:27:44,14.98333191,0.0002962,70.0022,106.8389,271.5692,88.5128,0.00021625,2.488e-05,0.0,0 STARLINK-3081,1 49152U 21082Y   23223.76926941  .00002488  00000-0  21625-3 0  9991,2 49152  70.0022 106.8389 0002962 271.5692  88.5128 14.98333191107158,6950.183,96.107,574.107,569.989,0.0
49152.0,STARLINK-3081,PAYLOAD,2023-08-12 20:05:53,14.98334813,0.0003208,70.0011,104.1459,269.3253,90.7539,0.00012652,1.417e-05,0.0,0 STARLINK-3081,1 49152U 21082Y   23224.83742655  .00001417  00000-0  12652-3 0  9999,2 49152  70.0011 104.1459 0003208 269.3253  90.7539 14.98334813107318,6950.178,96.107,574.273,569.813,0.0
49152.0,STARLINK-3081,PAYLOAD,2023-08-14 00:56:18,14.98332704,0.0003112,69.9999,101.1166,267.3027,92.7776,7.2256e-05,7.69e-06,0.0,0 STARLINK-3081,1 49152U 21082Y   23226.03910876  .00000769  00000-0  72256-4 0  9991,2 49152  69.9999 101.1166 0003112 267.3027  92.7776 14.98332704107494,6950.185,96.107,574.212,569.887,0.0
49152.0,STARLINK-3081,PAYLOAD,2023-08-15 00:58:20,14.9832711,0.0002889,70.0011,98.5919,264.5492,95.5337,0.00052535,6.18e-05,0.0,0 STARLINK-3081,1 49152U 21082Y   23227.04051081  .00006180  00000-0  52535-3 0  9997,2 49152  70.0011  98.5919 0002889 264.5492  95.5337 14.98327110107648,6950.202,96.107,574.075,570.059,0.0
49152.0,STARLINK-3081,PAYLOAD,2023-08-16 01:00:20,14.98335841,0.0003006,70.0012,96.0673,268.6561,91.4254,0.00020499,2.354e-05,0.0,0 STARLINK-3081,1 49152U 21082Y   23228.04190550  .00002354  00000-0  20499-3 0  9996,2 49152  70.0012  96.0673 0003006 268.6561  91.4254 14.98335841107792,6950.175,96.107,574.129,569.951,0.0
49152.0,STARLINK-3081,PAYLOAD,2023-08-16 21:50:05,14.98334526,0.0003061,70.0004,93.8782,269.6225,90.4584,0.00010776,1.193e-05,0.0,0 STARLINK-3081,1 49152U 21082Y   23228.90978462  .00001193  00000-0  10776-3 0  9994,2 49152  70.0004  93.8782 0003061 269.6225  90.4584 14.98334526107927,6950.179,96.107,574.171,569.916,0.0
49152.0,STARLINK-3081,PAYLOAD,2023-08-18 01:04:22,14.98338319,0.0003115,69.9991,91.0161,269.9458,90.1344,9.8055e-05,1.077e-05,0.0,0 STARLINK-3081,1 49152U 21082Y   23230.04470043  .00001077  00000-0  98055-4 0  9992,2 49152  69.9991  91.0161 0003115 269.9458  90.1344 14.98338319108095,6950.167,96.106,574.197,569.867,0.0
49152.0,STARLINK-3081,PAYLOAD,2023-08-18 17:05:43,14.98328681,0.0003094,69.9988,89.333,269.4128,90.6676,6.2893e-05,6.57e-06,0.0,0 STARLINK-3081,1 49152U 21082Y   23230.71230699  .00000657  00000-0  62893-4 0  9991,2 49152  69.9988  89.3330 0003094 269.4128  90.6676 14.98328681108199,6950.197,96.107,574.212,569.912,0.0
49152.0,STARLINK-3081,PAYLOAD,2023-08-19 18:43:52,14.98331254,0.0003056,69.999,86.6395,270.6131,89.4678,5.132e-05,5.19e-06,0.0,0 STARLINK-3081,1 49152U 21082Y   23231.78046622  .00000519  00000-0  51320-4 0  9990,2 49152  69.9990  86.6395 0003056 270.6131  89.4678 14.98331254108355,6950.189,96.107,574.178,569.93,0.0
49152.0,STARLINK-3081,PAYLOAD,2023-08-20 18:45:53,14.98331384,0.0003139,69.9991,84.1145,268.7559,91.3241,7.4714e-05,7.99e-06,0.0,0 STARLINK-3081,1 49152U 21082Y   23232.78186507  .00000799  00000-0  74714-4 0  9990,2 49152  69.9991  84.1145 0003139 268.7559  91.3241 14.98331384108505,6950.189,96.107,574.235,569.872,0.0
49152.0,STARLINK-3081,PAYLOAD,2023-08-21 18:47:54,14.98330526,0.0003184,69.9991,81.5891,267.0296,93.0499,3.6552e-05,3.43e-06,0.0,0 STARLINK-3081,1 49152U 21082Y   23233.78326612  .00000343  00000-0  36552-4 0  9997,2 49152  69.9991  81.5891 0003184 267.0296  93.0499 14.98330526108651,6950.191,96.107,574.269,569.843,0.0
